[{"OBJECT_NAME":"KSF2-D","OBJECT_ID":"2022-033AK","EPOCH":"2023-11-25T00:41:59.663328","MEAN_MOTION":15.92628036,"ECCENTRICITY":0.0007005,"INCLINATION":97.3245,"RA_OF_ASC_NODE":57.7355,"ARG_OF_PERICENTER":278.6655,"MEAN_ANOMALY":81.3826,"EPHEMERIS_TYPE":0,"CLASSIFICATION_TYPE":"U","NORAD_CAT_ID":52190,"ELEMENT_SET_NO":999,"REV_AT_EPOCH":9253,"BSTAR":0.0019099,"MEAN_MOTION_DOT":0.00648839,"MEAN_MOTION_DDOT":0.00017249},{"OBJECT_NAME":"SUCHAI-3","OBJECT_ID":"2022-033AL","EPOCH":"2023-11-24T18:27:02.030400","MEAN_MOTION":15.44597801,"ECCENTRICITY":0.0005973,"INCLINATION":97.3538,"RA_OF_ASC_NODE":50.8404,"ARG_OF_PERICENTER":284.3098,"MEAN_ANOMALY":75.7487,"EPHEMERIS_TYPE":0,"CLASSIFICATION_TYPE":"U","NORAD_CAT_ID":52191,"ELEMENT_SET_NO":999,"REV_AT_EPOCH":9196,"BSTAR":0.0011855,"MEAN_MOTION_DOT":0.00055395,"MEAN_MOTION_DDOT":0},{"OBJECT_NAME":"SUCHAI-2","OBJECT_ID":"2022-033AM","EPOCH":"2023-11-25T04:05:46.434912","MEAN_MOTION":15.38940676,"ECCENTRICITY":0.0005836,"INCLINATION":97.3325,"RA_OF_ASC_NODE":49.1689,"ARG_OF_PERICENTER":322.0761,"MEAN_ANOMALY":38.0072,"EPHEMERIS_TYPE":0,"CLASSIFICATION_TYPE":"U","NORAD_CAT_ID":52192,"ELEMENT_SET_NO":999,"REV_AT_EPOCH":9199,"BSTAR":0.00088675,"MEAN_MOTION_DOT":0.0003422,"MEAN_MOTION_DDOT":0},{"OBJECT_NAME":"KSF2-B","OBJECT_ID":"2022-033AN","EPOCH":"2023-11-25T03:29:45.790368","MEAN_MOTION":15.60094343,"ECCENTRICITY":0.0005772,"INCLINATION":97.3493,"RA_OF_ASC_NODE":55.2325,"ARG_OF_PERICENTER":289.3853,"MEAN_ANOMALY":70.678,"EPHEMERIS_TYPE":0,"CLASSIFICATION_TYPE":"U","NORAD_CAT_ID":52193,"ELEMENT_SET_NO":999,"REV_AT_EPOCH":9226,"BSTAR":0.0017009,"MEAN_MOTION_DOT":0.00140009,"MEAN_MOTION_DDOT":0},{"OBJECT_NAME":"KSF2-A","OBJECT_ID":"2022-033AP","EPOCH":"2023-11-25T03:27:06.098976","MEAN_MOTION":15.4089315,"ECCENTRICITY":0.0011619,"INCLINATION":97.3654,"RA_OF_ASC_NODE":52.6975,"ARG_OF_PERICENTER":253.9712,"MEAN_ANOMALY":106.0256,"EPHEMERIS_TYPE":0,"CLASSIFICATION_TYPE":"U","NORAD_CAT_ID":52194,"ELEMENT_SET_NO":999,"REV_AT_EPOCH":9189,"BSTAR":0.0015521,"MEAN_MOTION_DOT":0.00064281,"MEAN_MOTION_DDOT":0},{"OBJECT_NAME":"GLOBAL-18","OBJECT_ID":"2022-034B","EPOCH":"2023-11-24T11:23:54.664800","MEAN_MOTION":15.38548879,"ECCENTRICITY":0.0006617,"INCLINATION":52.9961,"RA_OF_ASC_NODE":2.0643,"ARG_OF_PERICENTER":252.7868,"MEAN_ANOMALY":107.241,"EPHEMERIS_TYPE":0,"CLASSIFICATION_TYPE":"U","NORAD_CAT_ID":52196,"ELEMENT_SET_NO":999,"REV_AT_EPOCH":9283,"BSTAR":0.00066444,"MEAN_MOTION_DOT":0.00025368,"MEAN_MOTION_DDOT":0},{"OBJECT_NAME":"GLOBAL-20","OBJECT_ID":"2022-034C","EPOCH":"2023-11-24T16:02:32.847072","MEAN_MOTION":15.40396267,"ECCENTRICITY":0.0010339,"INCLINATION":52.9958,"RA_OF_ASC_NODE":0.3968,"ARG_OF_PERICENTER":195.785,"MEAN_ANOMALY":164.2832,"EPHEMERIS_TYPE":0,"CLASSIFICATION_TYPE":"U","NORAD_CAT_ID":52197,"ELEMENT_SET_NO":999,"REV_AT_EPOCH":9287,"BSTAR":0.00073491,"MEAN_MOTION_DOT":0.00029924,"MEAN_MOTION_DDOT":0},{"OBJECT_NAME":"GAOFEN-3 03","OBJECT_ID":"2022-035A","EPOCH":"2023-11-25T01:59:43.312416","MEAN_MOTION":14.42217559,"ECCENTRICITY":0.0001678,"INCLINATION":98.4144,"RA_OF_ASC_NODE":334.8701,"ARG_OF_PERICENTER":93.6276,"MEAN_ANOMALY":266.5106,"EPHEMERIS_TYPE":0,"CLASSIFICATION_TYPE":"U","NORAD_CAT_ID":52200,"ELEMENT_SET_NO":999,"REV_AT_EPOCH":8607,"BSTAR":6.7537e-5,"MEAN_MOTION_DOT":1.79e-6,"MEAN_MOTION_DDOT":0},{"OBJECT_NAME":"COSMOS 2554","OBJECT_ID":"2022-036A","EPOCH":"2023-11-25T02:54:12.392928","MEAN_MOTION":13.96671661,"ECCENTRICITY":0.0005383,"INCLINATION":67.1487,"RA_OF_ASC_NODE":341.3754,"ARG_OF_PERICENTER":257.0104,"MEAN_ANOMALY":103.038,"EPHEMERIS_TYPE":0,"CLASSIFICATION_TYPE":"U","NORAD_CAT_ID":52202,"ELEMENT_SET_NO":999,"REV_AT_EPOCH":8337,"BSTAR":5.2417e-5,"MEAN_MOTION_DOT":-3.0e-8,"MEAN_MOTION_DDOT":0},{"OBJECT_NAME":"CHINASAT 6D (ZX 6D)","OBJECT_ID":"2022-038A","EPOCH":"2023-11-24T11:26:50.038656","MEAN_MOTION":1.00271075,"ECCENTRICITY":0.0003126,"INCLINATION":0.0252,"RA_OF_ASC_NODE":284.3381,"ARG_OF_PERICENTER":334.2519,"MEAN_ANOMALY":101.398,"EPHEMERIS_TYPE":0,"CLASSIFICATION_TYPE":"U","NORAD_CAT_ID":52255,"ELEMENT_SET_NO":999,"REV_AT_EPOCH":604,"BSTAR":0,"MEAN_MOTION_DOT":-3.46e-6,"MEAN_MOTION_DDOT":0},{"OBJECT_NAME":"DAQI 1","OBJECT_ID":"2022-039A","EPOCH":"2023-11-25T02:41:05.066016","MEAN_MOTION":14.57692414,"ECCENTRICITY":0.0001947,"INCLINATION":98.1908,"RA_OF_ASC_NODE":264.7253,"ARG_OF_PERICENTER":221.0994,"MEAN_ANOMALY":139.0059,"EPHEMERIS_TYPE":0,"CLASSIFICATION_TYPE":"U","NORAD_CAT_ID":52257,"ELEMENT_SET_NO":999,"REV_AT_EPOCH":8571,"BSTAR":0.00020339,"MEAN_MOTION_DOT":8.83e-6,"MEAN_MOTION_DDOT":0},{"OBJECT_NAME":"STARLINK-3810","OBJECT_ID":"2022-041A","EPOCH":"2023-11-25T02:15:54.166752","MEAN_MOTION":15.08852664,"ECCENTRICITY":0.0001701,"INCLINATION":53.2184,"RA_OF_ASC_NODE":260.2621,"ARG_OF_PERICENTER":106.8873,"MEAN_ANOMALY":253.2305,"EPHEMERIS_TYPE":0,"CLASSIFICATION_TYPE":"U","NORAD_CAT_ID":52261,"ELEMENT_SET_NO":999,"REV_AT_EPOCH":8943,"BSTAR":0.0001234,"MEAN_MOTION_DOT":1.677e-5,"MEAN_MOTION_DDOT":0},{"OBJECT_NAME":"STARLINK-3761","OBJECT_ID":"2022-041B","EPOCH":"2023-11-25T02:14:31.278048","MEAN_MOTION":15.0884559,"ECCENTRICITY":0.0001834,"INCLINATION":53.2184,"RA_OF_ASC_NODE":260.2109,"ARG_OF_PERICENTER":115.4589,"MEAN_ANOMALY":244.6593,"EPHEMERIS_TYPE":0,"CLASSIFICATION_TYPE":"U","NORAD_CAT_ID":52262,"ELEMENT_SET_NO":999,"REV_AT_EPOCH":8943,"BSTAR":0.00017345,"MEAN_MOTION_DOT":2.474e-5,"MEAN_MOTION_DDOT":0},{"OBJECT_NAME":"STARLINK-3786","OBJECT_ID":"2022-041C","EPOCH":"2023-11-24T19:58:17.510304","MEAN_MOTION":15.08842903,"ECCENTRICITY":0.000173,"INCLINATION":53.2172,"RA_OF_ASC_NODE":261.4341,"ARG_OF_PERICENTER":97.0051,"MEAN_ANOMALY":263.1138,"EPHEMERIS_TYPE":0,"CLASSIFICATION_TYPE":"U","NORAD_CAT_ID":52263,"ELEMENT_SET_NO":999,"REV_AT_EPOCH":8817,"BSTAR":-5.0397e-5,"MEAN_MOTION_DOT":-1.09e-5,"MEAN_MOTION_DDOT":0},{"OBJECT_NAME":"STARLINK-3795","OBJECT_ID":"2022-041D","EPOCH":"2023-11-25T02:09:13.813344","MEAN_MOTION":15.08847118,"ECCENTRICITY":0.000156,"INCLINATION":53.2167,"RA_OF_ASC_NODE":260.2752,"ARG_OF_PERICENTER":93.901,"MEAN_ANOMALY":266.2161,"EPHEMERIS_TYPE":0,"CLASSIFICATION_TYPE":"U","NORAD_CAT_ID":52264,"ELEMENT_SET_NO":999,"REV_AT_EPOCH":8942,"BSTAR":0.00021703,"MEAN_MOTION_DOT":3.168e-5,"MEAN_MOTION_DDOT":0},{"OBJECT_NAME":"STARLINK-3740","OBJECT_ID":"2022-041E","EPOCH":"2023-11-24T19:42:23.653440","MEAN_MOTION":15.08836394,"ECCENTRICITY":0.0001632,"INCLINATION":53.2175,"RA_OF_ASC_NODE":261.4813,"ARG_OF_PERICENTER":100.0564,"MEAN_ANOMALY":260.0612,"EPHEMERIS_TYPE":0,"CLASSIFICATION_TYPE":"U","NORAD_CAT_ID":52265,"ELEMENT_SET_NO":999,"REV_AT_EPOCH":8817,"BSTAR":1.0672e-6,"MEAN_MOTION_DOT":-2.71e-6,"MEAN_MOTION_DDOT":0},{"OBJECT_NAME":"STARLINK-3739","OBJECT_ID":"2022-041F","EPOCH":"2023-11-24T19:37:06.070368","MEAN_MOTION":15.08832889,"ECCENTRICITY":0.0002007,"INCLINATION":53.2168,"RA_OF_ASC_NODE":261.5005,"ARG_OF_PERICENTER":76.9058,"MEAN_ANOMALY":283.2158,"EPHEMERIS_TYPE":0,"CLASSIFICATION_TYPE":"U","NORAD_CAT_ID":52266,"ELEMENT_SET_NO":999,"REV_AT_EPOCH":8817,"BSTAR":0.00033652,"MEAN_MOTION_DOT":5.071e-5,"MEAN_MOTION_DDOT":0}]
