KSF2-D                  
1 52190U 22033AK  23329.02916277  .00648839  17249-3  19099-2 0  9994
2 52190  97.3245  57.7355 0007005 278.6655  81.3826 15.92628036 92531
SUCHAI-3                
1 52191U 22033AL  23328.76877350  .00055395  00000+0  11855-2 0  9997
2 52191  97.3538  50.8404 0005973 284.3098  75.7487 15.44597801 91961
SUCHAI-2                
1 52192U 22033AM  23329.17067633  .00034220  00000+0  88675-3 0  9998
2 52192  97.3325  49.1689 0005836 322.0761  38.0072 15.38940676 91997
KSF2-B                  
1 52193U 22033AN  23329.14566887  .00140009  00000+0  17009-2 0  9996
2 52193  97.3493  55.2325 0005772 289.3853  70.6780 15.60094343 92260
KSF2-A                  
1 52194U 22033AP  23329.14382059  .00064281  00000+0  15521-2 0  9998
2 52194  97.3654  52.6975 0011619 253.9712 106.0256 15.40893150 91891
GLOBAL-18               
1 52196U 22034B   23328.47493825  .00025368  00000+0  66444-3 0  9994
2 52196  52.9961   2.0643 0006617 252.7868 107.2410 15.38548879 92835
GLOBAL-20               
1 52197U 22034C   23328.66843573  .00029924  00000+0  73491-3 0  9997
2 52197  52.9958   0.3968 0010339 195.7850 164.2832 15.40396267 92876
GAOFEN-3 03             
1 52200U 22035A   23329.08314019  .00000179  00000+0  67537-4 0  9994
2 52200  98.4144 334.8701 0001678  93.6276 266.5106 14.42217559 86079
COSMOS 2554             
1 52202U 22036A   23329.12097677 -.00000003  00000+0  52417-4 0  9998
2 52202  67.1487 341.3754 0005383 257.0104 103.0380 13.96671661 83373
CHINASAT 6D (ZX 6D)     
1 52255U 22038A   23328.47696804 -.00000346  00000+0  00000+0 0  9998
2 52255   0.0252 284.3381 0003126 334.2519 101.3980  1.00271075  6043
DAQI 1                  
1 52257U 22039A   23329.11186419  .00000883  00000+0  20339-3 0  9995
2 52257  98.1908 264.7253 0001947 221.0994 139.0059 14.57692414 85716
STARLINK-3810           
1 52261U 22041A   23329.09437693  .00001677  00000+0  12340-3 0  9998
2 52261  53.2184 260.2621 0001701 106.8873 253.2305 15.08852664 89431
STARLINK-3761           
1 52262U 22041B   23329.09341757  .00002474  00000+0  17345-3 0  9990
2 52262  53.2184 260.2109 0001834 115.4589 244.6593 15.08845590 89433
STARLINK-3786           
1 52263U 22041C   23328.83214711 -.00001090  00000+0 -50397-4 0  9991
2 52263  53.2172 261.4341 0001730  97.0051 263.1138 15.08842903 88172
STARLINK-3795           
1 52264U 22041D   23329.08974321  .00003168  00000+0  21703-3 0  9994
2 52264  53.2167 260.2752 0001560  93.9010 266.2161 15.08847118 89423
STARLINK-3740           
1 52265U 22041E   23328.82110710 -.00000271  00000+0  10672-5 0  9998
2 52265  53.2175 261.4813 0001632 100.0564 260.0612 15.08836394 88176
STARLINK-3739           
1 52266U 22041F   23328.81743137  .00005071  00000+0  33652-3 0  9996
2 52266  53.2168 261.5005 0002007  76.9058 283.2158 15.08832889 88176
